{
  "type": "FeatureCollection",
  "features": [
    {
      "type": "Feature",
      "properties": {
        "norad_id": 33412,
        "name": "COSMO-SKYMED 3",
        "group": "resource",
        "lat": 50.50347225045744,
        "lon": -173.30702229309276,
        "alt_km": 552.2676218169727,
        "timestamp": "2025-12-11T22:43:46.928139+00:00",
        "meta_object_name": "COSMO-SKYMED 3",
        "meta_object_id": "2008-054A",
        "meta_epoch": "2025-12-11T14:31:33.504960",
        "meta_mean_motion": 15.05338479,
        "meta_eccentricity": 0.00159804,
        "meta_inclination": 97.8468,
        "meta_ra_of_asc_node": 195.9775,
        "meta_arg_of_pericenter": 177.9063,
        "meta_mean_anomaly": 182.2233,
        "meta_ephemeris_type": 0,
        "meta_classification_type": "U",
        "meta_norad_cat_id": 33412,
        "meta_element_set_no": 999,
        "meta_rev_at_epoch": 92870,
        "meta_bstar": 0.00054822514,
        "meta_mean_motion_dot": 7.811e-05,
        "meta_mean_motion_ddot": 0,
        "tle_line1": "1 33412U 08054A   25345.60524890  .00007811  00000+0  54823-3 0  9994",
        "tle_line2": "2 33412  97.8468 195.9775 0015980 177.9063 182.2233 15.05338479928708"
      },
      "geometry": {
        "type": "Point",
        "coordinates": [
          -173.30702229309276,
          50.50347225045744
        ]
      }
    },
    {
      "type": "Feature",
      "properties": {
        "norad_id": 33446,
        "name": "YAOGAN-4",
        "group": "resource",
        "lat": 79.16304958482256,
        "lon": 142.6910514908039,
        "alt_km": 619.7982726894079,
        "timestamp": "2025-12-11T22:43:46.928150+00:00",
        "meta_object_name": "YAOGAN-4",
        "meta_object_id": "2008-061A",
        "meta_epoch": "2025-12-11T12:34:26.703552",
        "meta_mean_motion": 14.82676279,
        "meta_eccentricity": 0.00136536,
        "meta_inclination": 97.9178,
        "meta_ra_of_asc_node": 275.6352,
        "meta_arg_of_pericenter": 327.7315,
        "meta_mean_anomaly": 32.3062,
        "meta_ephemeris_type": 0,
        "meta_classification_type": "U",
        "meta_norad_cat_id": 33446,
        "meta_element_set_no": 999,
        "meta_rev_at_epoch": 91785,
        "meta_bstar": 0.00029221942,
        "meta_mean_motion_dot": 2.306e-05,
        "meta_mean_motion_ddot": 0,
        "tle_line1": "1 33446U 08061A   25345.52392018  .00002306  00000+0  29222-3 0  9994",
        "tle_line2": "2 33446  97.9178 275.6352 0013653 327.7315  32.3062 14.82676279917857"
      },
      "geometry": {
        "type": "Point",
        "coordinates": [
          142.6910514908039,
          79.16304958482256
        ]
      }
    },
    {
      "type": "Feature",
      "properties": {
        "norad_id": 33492,
        "name": "GOSAT (IBUKI)",
        "group": "resource",
        "lat": -12.433736156213397,
        "lon": -87.23288157028006,
        "alt_km": 673.5044783835783,
        "timestamp": "2025-12-11T22:43:46.928161+00:00",
        "meta_object_name": "GOSAT (IBUKI)",
        "meta_object_id": "2009-002A",
        "meta_epoch": "2025-12-11T13:40:25.815072",
        "meta_mean_motion": 14.67551658,
        "meta_eccentricity": 9.456e-05,
        "meta_inclination": 98.0769,
        "meta_ra_of_asc_node": 94.1893,
        "meta_arg_of_pericenter": 90.8306,
        "meta_mean_anomaly": 269.3007,
        "meta_ephemeris_type": 0,
        "meta_classification_type": "U",
        "meta_norad_cat_id": 33492,
        "meta_element_set_no": 999,
        "meta_rev_at_epoch": 90394,
        "meta_bstar": 0.0002657682,
        "meta_mean_motion_dot": 1.46e-05,
        "meta_mean_motion_ddot": 0,
        "tle_line1": "1 33492U 09002A   25345.56974323  .00001460  00000+0  26577-3 0  9990",
        "tle_line2": "2 33492  98.0769  94.1893 0000945  90.8306 269.3007 14.67551658903940"
      },
      "geometry": {
        "type": "Point",
        "coordinates": [
          -87.23288157028006,
          -12.433736156213397
        ]
      }
    },
    {
      "type": "Feature",
      "properties": {
        "norad_id": 35681,
        "name": "DEIMOS-1",
        "group": "resource",
        "lat": -67.87640237535905,
        "lon": -52.89192104085608,
        "alt_km": 654.4522919377359,
        "timestamp": "2025-12-11T22:43:46.928173+00:00",
        "meta_object_name": "DEIMOS-1",
        "meta_object_id": "2009-041A",
        "meta_epoch": "2025-12-11T15:05:27.271104",
        "meta_mean_motion": 14.74951002,
        "meta_eccentricity": 0.00027329,
        "meta_inclination": 97.7151,
        "meta_ra_of_asc_node": 146.2837,
        "meta_arg_of_pericenter": 81.6258,
        "meta_mean_anomaly": 278.5262,
        "meta_ephemeris_type": 0,
        "meta_classification_type": "U",
        "meta_norad_cat_id": 35681,
        "meta_element_set_no": 999,
        "meta_rev_at_epoch": 87923,
        "meta_bstar": 0.00022273716,
        "meta_mean_motion_dot": 1.449e-05,
        "meta_mean_motion_ddot": 0,
        "tle_line1": "1 35681U 09041A   25345.62878786  .00001449  00000+0  22274-3 0  9995",
        "tle_line2": "2 35681  97.7151 146.2837 0002732  81.6258 278.5262 14.74951002879234"
      },
      "geometry": {
        "type": "Point",
        "coordinates": [
          -52.89192104085608,
          -67.87640237535905
        ]
      }
    },
    {
      "type": "Feature",
      "properties": {
        "norad_id": 35682,
        "name": "DUBAISAT-1",
        "group": "resource",
        "lat": -4.9813209376210414,
        "lon": -64.06217670716075,
        "alt_km": 654.6262990743098,
        "timestamp": "2025-12-11T22:43:46.928184+00:00",
        "meta_object_name": "DUBAISAT-1",
        "meta_object_id": "2009-041B",
        "meta_epoch": "2025-12-11T15:22:44.011488",
        "meta_mean_motion": 14.74599442,
        "meta_eccentricity": 0.00096284,
        "meta_inclination": 97.9787,
        "meta_ra_of_asc_node": 116.3366,
        "meta_arg_of_pericenter": 318.4291,
        "meta_mean_anomaly": 41.6184,
        "meta_ephemeris_type": 0,
        "meta_classification_type": "U",
        "meta_norad_cat_id": 35682,
        "meta_element_set_no": 999,
        "meta_rev_at_epoch": 87745,
        "meta_bstar": 0.00034385951,
        "meta_mean_motion_dot": 2.243e-05,
        "meta_mean_motion_ddot": 0,
        "tle_line1": "1 35682U 09041B   25345.64078717  .00002243  00000+0  34386-3 0  9994",
        "tle_line2": "2 35682  97.9787 116.3366 0009628 318.4291  41.6184 14.74599442877456"
      },
      "geometry": {
        "type": "Point",
        "coordinates": [
          -64.06217670716075,
          -4.9813209376210414
        ]
      }
    },
    {
      "type": "Feature",
      "properties": {
        "norad_id": 35931,
        "name": "OCEANSAT-2",
        "group": "resource",
        "lat": -35.8979972389251,
        "lon": 160.6206496449182,
        "alt_km": 912.9553037624328,
        "timestamp": "2025-12-11T22:43:46.928195+00:00",
        "meta_object_name": "OCEANSAT-2",
        "meta_object_id": "2009-051A",
        "meta_epoch": "2025-12-11T14:50:15.834048",
        "meta_mean_motion": 13.99624891,
        "meta_eccentricity": 0.00162512,
        "meta_inclination": 98.2224,
        "meta_ra_of_asc_node": 346.3327,
        "meta_arg_of_pericenter": 47.9976,
        "meta_mean_anomaly": 312.2571,
        "meta_ephemeris_type": 0,
        "meta_classification_type": "U",
        "meta_norad_cat_id": 35931,
        "meta_element_set_no": 999,
        "meta_rev_at_epoch": 85309,
        "meta_bstar": -7.5338967e-05,
        "meta_mean_motion_dot": -1.48e-06,
        "meta_mean_motion_ddot": 0,
        "tle_line1": "1 35931U 09051A   25345.61823882 -.00000148  00000+0 -75339-4 0  9998",
        "tle_line2": "2 35931  98.2224 346.3327 0016251  47.9976 312.2571 13.99624891853093"
      },
      "geometry": {
        "type": "Point",
        "coordinates": [
          160.6206496449182,
          -35.8979972389251
        ]
      }
    },
    {
      "type": "Feature",
      "properties": {
        "norad_id": 35946,
        "name": "WORLDVIEW-2 (WV-2)",
        "group": "resource",
        "lat": -48.241119131044925,
        "lon": -132.57290250136268,
        "alt_km": 776.6530735015349,
        "timestamp": "2025-12-11T22:43:46.928205+00:00",
        "meta_object_name": "WORLDVIEW-2 (WV-2)",
        "meta_object_id": "2009-055A",
        "meta_epoch": "2025-12-11T14:59:14.178624",
        "meta_mean_motion": 14.37652058,
        "meta_eccentricity": 0.00053131,
        "meta_inclination": 98.4761,
        "meta_ra_of_asc_node": 56.7239,
        "meta_arg_of_pericenter": 69.6876,
        "meta_mean_anomaly": 290.4881,
        "meta_ephemeris_type": 0,
        "meta_classification_type": "U",
        "meta_norad_cat_id": 35946,
        "meta_element_set_no": 999,
        "meta_rev_at_epoch": 84869,
        "meta_bstar": 0.00010969505,
        "meta_mean_motion_dot": 2.86e-06,
        "meta_mean_motion_ddot": 0,
        "tle_line1": "1 35946U 09055A   25345.62446966  .00000286  00000+0  10970-3 0  9993",
        "tle_line2": "2 35946  98.4761  56.7239 0005313  69.6876 290.4881 14.37652058848698"
      },
      "geometry": {
        "type": "Point",
        "coordinates": [
          -132.57290250136268,
          -48.241119131044925
        ]
      }
    }
  ]
}